[{"OBJECT_NAME":"STARLINK-30108","OBJECT_ID":"2023-056P","EPOCH":"2026-03-09T13:07:34.368384","MEAN_MOTION":15.11980738,"ECCENTRICITY":0.00017014,"INCLINATION":43.0001,"RA_OF_ASC_NODE":197.0429,"ARG_OF_PERICENTER":278.3718,"MEAN_ANOMALY":81.6935,"EPHEMERIS_TYPE":0,"CLASSIFICATION_TYPE":"U","NORAD_CAT_ID":56299,"ELEMENT_SET_NO":999,"REV_AT_EPOCH":16022,"BSTAR":-0.00011039932,"MEAN_MOTION_DOT":-2.151e-5,"MEAN_MOTION_DDOT":0},{"OBJECT_NAME":"SCOUT X-1 DEB","OBJECT_ID":"1961-004G","EPOCH":"2026-03-08T23:39:42.146208","MEAN_MOTION":14.27565327,"ECCENTRICITY":0.03815607,"INCLINATION":38.8221,"RA_OF_ASC_NODE":287.5839,"ARG_OF_PERICENTER":202.4156,"MEAN_ANOMALY":155.9515,"EPHEMERIS_TYPE":0,"CLASSIFICATION_TYPE":"U","NORAD_CAT_ID":4026,"ELEMENT_SET_NO":999,"REV_AT_EPOCH":11947,"BSTAR":0.0031867079,"MEAN_MOTION_DOT":0.00017371,"MEAN_MOTION_DDOT":0}]
